{
  "norad_id": 60107,
  "name": "STARLINK-32035",
  "history": [
    {
      "epoch": "2026-03-28T20:50:28.883040Z",
      "apogee_km": 476.1042787063416,
      "perigee_km": 474.33844239116297,
      "latitude_deg": -4.765906811389386e-06,
      "longitude_deg": 169.07589044211701,
      "height_km": 476.1782594380178,
      "semi_major_axis_km": 6853.358360548752,
      "eccentricity": 0.00012883,
      "inclination_deg": 53.1617,
      "raan_deg": 307.9789,
      "arg_perigee_deg": 93.8097,
      "mean_anomaly_deg": 266.3051,
      "mean_motion_rev_day": 15.30197893
    },
    {
      "epoch": "2026-03-28T23:58:35.467104Z",
      "apogee_km": 476.06667219326755,
      "perigee_km": 474.40952609429496,
      "latitude_deg": 6.636640905371265e-05,
      "longitude_deg": 121.31335324716669,
      "height_km": 476.1690852606519,
      "semi_major_axis_km": 6853.375099143781,
      "eccentricity": 0.0001209,
      "inclination_deg": 53.1613,
      "raan_deg": 307.3725,
      "arg_perigee_deg": 92.2618,
      "mean_anomaly_deg": 267.8522,
      "mean_motion_rev_day": 15.30192287
    }
  ]
}